FLOCK 3P-77             
1 42025U 17008CF  17073.88990758  .00001117  00000-0  52492-4 0  9997
2 42025  97.5100 135.4787 0009276 157.1239 203.0401 15.21681743  4039
